[{"OBJECT_NAME":"FLOCK 4G-21","OBJECT_ID":"2025-009AU","EPOCH":"2026-03-09T04:40:37.351200","MEAN_MOTION":15.28381075,"ECCENTRICITY":4.655e-5,"INCLINATION":97.4032,"RA_OF_ASC_NODE":151.1274,"ARG_OF_PERICENTER":329.5782,"MEAN_ANOMALY":30.5431,"EPHEMERIS_TYPE":0,"CLASSIFICATION_TYPE":"U","NORAD_CAT_ID":62651,"ELEMENT_SET_NO":999,"REV_AT_EPOCH":6367,"BSTAR":0.00049618643,"MEAN_MOTION_DOT":0.00013648,"MEAN_MOTION_DDOT":0},{"OBJECT_NAME":"STARLINK-33608","OBJECT_ID":"2025-065AC","EPOCH":"2026-03-09T12:31:30.859680","MEAN_MOTION":15.2761225,"ECCENTRICITY":4.848e-5,"INCLINATION":42.9988,"RA_OF_ASC_NODE":108.0021,"ARG_OF_PERICENTER":240.5355,"MEAN_ANOMALY":119.5448,"EPHEMERIS_TYPE":0,"CLASSIFICATION_TYPE":"U","NORAD_CAT_ID":63425,"ELEMENT_SET_NO":999,"REV_AT_EPOCH":5281,"BSTAR":0.0011526418,"MEAN_MOTION_DOT":0.00031623,"MEAN_MOTION_DDOT":0}]
